NORAD_CAT_ID,OBJECT_NAME,OBJECT_TYPE,EPOCH,MEAN_MOTION,ECCENTRICITY,INCLINATION,RA_OF_ASC_NODE,ARG_OF_PERICENTER,MEAN_ANOMALY,BSTAR,MEAN_MOTION_DOT,MEAN_MOTION_DDOT,TLE_LINE0,TLE_LINE1,TLE_LINE2,SEMIMAJOR_AXIS,PERIOD,APOGEE,PERIGEE,DECAYED
56451.0,STARLINK-5985,PAYLOAD,2023-12-03 13:05:57,14.98288528,0.0002365,70.0044,70.1615,252.7482,107.3418,-0.00038749,-4.708e-05,0.0,0 STARLINK-5985,1 56451U 23064D   23337.54580504 -.00004708  00000-0 -38749-3 0  9990,2 56451  70.0044  70.1615 0002365 252.7482 107.3418 14.98288528 31344,6950.321,96.11,573.83,570.542,0.0
56451.0,STARLINK-5985,PAYLOAD,2023-12-03 16:18:14,14.98285013,0.000226,70.0035,69.8242,266.5729,93.5172,-0.00039844,-4.838e-05,0.0,0 STARLINK-5985,1 56451U 23064D   23337.67933230 -.00004838  00000-0 -39844-3 0  9993,2 56451  70.0035  69.8242 0002260 266.5729  93.5172 14.98285013 31727,6950.332,96.11,573.768,570.626,0.0
56451.0,STARLINK-5985,PAYLOAD,2023-12-04 11:31:47,14.98335553,0.0002977,70.0042,67.8072,218.4645,141.6302,-8.9185e-05,-1.157e-05,0.0,0 STARLINK-5985,1 56451U 23064D   23338.48041431 -.00001157  00000-0 -89185-4 0  9991,2 56451  70.0042  67.8072 0002977 218.4645 141.6302 14.98335553 31840,6950.176,96.107,574.11,569.972,0.0
56451.0,STARLINK-5985,PAYLOAD,2023-12-04 13:07:56,14.98325249,0.0003034,70.0046,67.6394,214.1816,145.9149,-0.00018908,-2.348e-05,0.0,0 STARLINK-5985,1 56451U 23064D   23338.54718412 -.00002348  00000-0 -18908-3 0  9995,2 56451  70.0046  67.6394 0003034 214.1816 145.9149 14.98325249 31495,6950.208,96.107,574.181,569.964,0.0
56451.0,STARLINK-5985,PAYLOAD,2023-12-05 11:33:48,14.98321482,0.0002554,70.0024,65.2785,240.6513,119.4392,0.00035405,4.133e-05,0.0,0 STARLINK-5985,1 56451U 23064D   23339.48181349  .00004133  00000-0  35405-3 0  9995,2 56451  70.0024  65.2785 0002554 240.6513 119.4392 14.98321482 31999,6950.219,96.108,573.859,570.309,0.0
56451.0,STARLINK-5985,PAYLOAD,2023-12-05 13:09:56,14.98322962,0.0002686,70.0031,65.1109,238.5958,121.4939,0.00051818,6.094e-05,0.0,0 STARLINK-5985,1 56451U 23064D   23339.54856796  .00006094  00000-0  51818-3 0  9991,2 56451  70.0031  65.1109 0002686 238.5958 121.4939 14.98322962 31647,6950.215,96.107,573.946,570.213,0.0
56451.0,STARLINK-5985,PAYLOAD,2023-12-06 11:35:50,14.98324231,0.0003331,70.0048,62.7567,206.663,153.4358,-7.1591e-05,-9.47e-06,0.0,0 STARLINK-5985,1 56451U 23064D   23340.48321940 -.00000947  00000-0 -71591-4 0  9998,2 56451  70.0048  62.7567 0003331 206.6630 153.4358 14.98324231 32144,6950.211,96.107,574.391,569.761,0.0
56451.0,STARLINK-5985,PAYLOAD,2023-12-06 13:11:58,14.98322925,0.0002967,70.0041,62.5873,217.4889,142.6063,-8.8162e-05,-1.144e-05,0.0,0 STARLINK-5985,1 56451U 23064D   23340.54998132 -.00001144  00000-0 -88162-4 0  9990,2 56451  70.0041  62.5873 0002967 217.4889 142.6063 14.98322925 31796,6950.215,96.107,574.142,570.018,0.0
56451.0,STARLINK-5985,PAYLOAD,2023-12-07 11:37:50,14.98330639,0.0003091,70.0034,60.2297,246.9677,113.1156,-0.00022569,-2.785e-05,0.0,0 STARLINK-5985,1 56451U 23064D   23341.48461471 -.00002785  00000-0 -22569-3 0  9995,2 56451  70.0034  60.2297 0003091 246.9677 113.1156 14.98330639 32297,6950.191,96.107,574.204,569.908,0.0
56451.0,STARLINK-5985,PAYLOAD,2023-12-07 13:13:58,14.9833711,0.0003325,70.0017,60.0596,259.5528,100.5257,-0.00017258,-2.152e-05,0.0,0 STARLINK-5985,1 56451U 23064D   23341.55136941 -.00002152  00000-0 -17258-3 0  9991,2 56451  70.0017  60.0596 0003325 259.5528 100.5257 14.98337110 31947,6950.171,96.107,574.347,569.725,0.0
56451.0,STARLINK-5985,PAYLOAD,2023-12-08 11:39:51,14.98324271,0.0003118,70.0018,57.7034,246.8111,113.2719,5.4118e-06,-2.8e-07,0.0,0 STARLINK-5985,1 56451U 23064D   23342.48601002 -.00000028  00000-0  54118-5 0  9996,2 56451  70.0018  57.7034 0003118 246.8111 113.2719 14.98324271 32449,6950.211,96.107,574.243,569.909,0.0
56451.0,STARLINK-5985,PAYLOAD,2023-12-08 13:15:59,14.98328547,0.0003073,70.0011,57.5341,248.9658,111.1173,2.752e-05,2.35e-06,0.0,0 STARLINK-5985,1 56451U 23064D   23342.55276726  .00000235  00000-0  27520-4 0  9990,2 56451  70.0011  57.5341 0003073 248.9658 111.1173 14.98328547 32092,6950.197,96.107,574.198,569.927,0.0
56451.0,STARLINK-5985,PAYLOAD,2023-12-09 11:41:51,14.98329534,0.0003531,70.0,55.1748,269.5371,90.5384,3.3527e-05,3.07e-06,0.0,0 STARLINK-5985,1 56451U 23064D   23343.48740683  .00000307  00000-0  33527-4 0  9995,2 56451  70.0000  55.1748 0003531 269.5371  90.5384 14.98329534 32591,6950.194,96.107,574.513,569.605,0.0
56451.0,STARLINK-5985,PAYLOAD,2023-12-09 13:17:59,14.98332422,0.0003552,70.0,55.0069,267.7227,92.3525,4.5843e-05,4.54e-06,0.0,0 STARLINK-5985,1 56451U 23064D   23343.55416448  .00000454  00000-0  45843-4 0  9999,2 56451  70.0000  55.0069 0003552 267.7227  92.3525 14.98332422 32248,6950.185,96.107,574.519,569.582,0.0
56451.0,STARLINK-5985,PAYLOAD,2023-12-09 14:54:07,14.98334799,0.0003478,69.9999,54.8387,265.4436,94.6326,1.9922e-05,1.45e-06,0.0,0 STARLINK-5985,1 56451U 23064D   23343.62092345  .00000145  00000-0  19922-4 0  9999,2 56451  69.9999  54.8387 0003478 265.4436  94.6326 14.98334799 32250,6950.178,96.107,574.46,569.626,0.0
56451.0,STARLINK-5985,PAYLOAD,2023-12-10 11:43:52,14.98330427,0.000331,70.0006,52.6506,267.2469,92.8311,1.6381e-05,1.02e-06,0.0,0 STARLINK-5985,1 56451U 23064D   23344.48880604  .00000102  00000-0  16381-4 0  9996,2 56451  70.0006  52.6506 0003310 267.2469  92.8311 14.98330427 32744,6950.192,96.107,574.357,569.756,0.0
56451.0,STARLINK-5985,PAYLOAD,2023-12-10 13:20:00,14.98338735,0.0003284,69.9999,52.4832,253.4279,106.6519,-8.8368e-05,-1.148e-05,0.0,0 STARLINK-5985,1 56451U 23064D   23344.55556277 -.00001148  00000-0 -88368-4 0  9997,2 56451  69.9999  52.4832 0003284 253.4279 106.6519 14.98338735 32393,6950.166,96.106,574.313,569.748,0.0
56451.0,STARLINK-5985,PAYLOAD,2023-12-10 14:56:08,14.983325,0.00035,70.0,52.3144,264.3207,95.7553,2.831e-05,2.45e-06,0.0,0 STARLINK-5985,1 56451U 23064D   23344.62232351  .00000245  00000-0  28310-4 0  9995,2 56451  70.0000  52.3144 0003500 264.3207  95.7553 14.98332500 32409,6950.185,96.107,574.483,569.618,0.0
56451.0,STARLINK-5985,PAYLOAD,2023-12-11 11:45:53,14.98332496,0.0003535,69.9999,50.1265,264.9767,95.0988,8.017e-06,3e-08,0.0,0 STARLINK-5985,1 56451U 23064D   23345.49020301  .00000003  00000-0  80170-5 0  9996,2 56451  69.9999  50.1265 0003535 264.9767  95.0988 14.98332496 32890,6950.185,96.107,574.507,569.593,0.0
56451.0,STARLINK-5985,PAYLOAD,2023-12-11 13:22:01,14.98333145,0.0003534,69.9999,49.9583,264.9739,95.1016,1.4654e-05,8.2e-07,0.0,0 STARLINK-5985,1 56451U 23064D   23345.55696229  .00000082  00000-0  14654-4 0  9991,2 56451  69.9999  49.9583 0003534 264.9739  95.1016 14.98333145 32544,6950.183,96.107,574.504,569.592,0.0
56451.0,STARLINK-5985,PAYLOAD,2023-12-11 14:58:09,14.98332843,0.0003531,69.9999,49.7899,265.4723,94.6033,1.1819e-05,4.8e-07,0.0,0 STARLINK-5985,1 56451U 23064D   23345.62372246  .00000048  00000-0  11819-4 0  9991,2 56451  69.9999  49.7899 0003531 265.4723  94.6033 14.98332843 32556,6950.184,96.107,574.503,569.595,0.0
56451.0,STARLINK-5985,PAYLOAD,2023-12-12 11:47:54,14.98330867,0.0003325,70.0001,47.6015,264.9406,95.1374,6.452e-06,-1.6e-07,0.0,0 STARLINK-5985,1 56451U 23064D   23346.49160324 -.00000016  00000-0  64520-5 0  9993,2 56451  70.0001  47.6015 0003325 264.9406  95.1374 14.98330867 33046,6950.19,96.107,574.366,569.744,0.0
56451.0,STARLINK-5985,PAYLOAD,2023-12-12 13:24:02,14.98330922,0.0003324,70.0001,47.4332,265.0362,95.0418,6.8616e-06,-1.1e-07,0.0,0 STARLINK-5985,1 56451U 23064D   23346.55836314 -.00000011  00000-0  68616-5 0  9994,2 56451  70.0001  47.4332 0003324 265.0362  95.0418 14.98330922 32698,6950.19,96.107,574.365,569.745,0.0
56451.0,STARLINK-5985,PAYLOAD,2023-12-13 11:49:55,14.98329328,0.0003271,70.0,45.0764,264.0806,95.998,-3.9975e-06,-1.41e-06,0.0,0 STARLINK-5985,1 56451U 23064D   23347.49300404 -.00000141  00000-0 -39975-5 0  9995,2 56451  70.0000  45.0764 0003271 264.0806  95.9980 14.98329328 33190,6950.195,96.107,574.333,569.787,0.0
56451.0,STARLINK-5985,PAYLOAD,2023-12-13 13:26:03,14.98329575,0.0003268,70.0001,44.9081,264.0883,95.9903,-1.363e-06,-1.09e-06,0.0,0 STARLINK-5985,1 56451U 23064D   23347.55976381 -.00000109  00000-0 -13630-5 0  9999,2 56451  70.0001  44.9081 0003268 264.0883  95.9903 14.98329575 32842,6950.194,96.107,574.331,569.788,0.0
56451.0,STARLINK-5985,PAYLOAD,2023-12-14 11:51:56,14.98327356,0.0003131,70.0004,42.552,259.2096,100.871,-5.6011e-06,-1.6e-06,0.0,0 STARLINK-5985,1 56451U 23064D   23348.49440608 -.00000160  00000-0 -56011-5 0  9998,2 56451  70.0004  42.5520 0003131 259.2096 100.8710 14.98327356 33341,6950.201,96.107,574.242,569.89,0.0
56451.0,STARLINK-5985,PAYLOAD,2023-12-14 13:28:04,14.98327586,0.0003132,70.0004,42.3838,259.4744,100.6063,-3.4627e-06,-1.34e-06,0.0,0 STARLINK-5985,1 56451U 23064D   23348.56116599 -.00000134  00000-0 -34627-5 0  9995,2 56451  70.0004  42.3838 0003132 259.4744 100.6063 14.98327586 32998,6950.2,96.107,574.242,569.889,0.0
56451.0,STARLINK-5985,PAYLOAD,2023-12-15 11:53:57,14.98326857,0.0003148,70.0003,40.0273,260.1285,99.9518,-3.6724e-06,-1.37e-06,0.0,0 STARLINK-5985,1 56451U 23064D   23349.49580728 -.00000137  00000-0 -36724-5 0  9990,2 56451  70.0003  40.0273 0003148 260.1285  99.9518 14.98326857 33492,6950.203,96.107,574.256,569.88,0.0
56451.0,STARLINK-5985,PAYLOAD,2023-12-15 13:30:05,14.98326767,0.0003163,70.0002,39.8587,261.4166,98.6634,-5.0126e-06,-1.53e-06,0.0,0 STARLINK-5985,1 56451U 23064D   23349.56256756 -.00000153  00000-0 -50126-5 0  9999,2 56451  70.0002  39.8587 0003163 261.4166  98.6634 14.98326767 33141,6950.203,96.107,574.266,569.87,0.0
56451.0,STARLINK-5985,PAYLOAD,2023-12-16 11:55:58,14.98333764,0.0003242,69.9999,37.5018,262.7134,97.3657,6.14e-05,6.4e-06,0.0,0 STARLINK-5985,1 56451U 23064D   23350.49720126  .00000640  00000-0  61400-4 0  9995,2 56451  69.9999  37.5018 0003242 262.7134  97.3657 14.98333764 33645,6950.181,96.107,574.299,569.793,0.0
